{
  "norad_id": 65639,
  "name": "STARLINK-35127",
  "history": [
    {
      "epoch": "2026-03-28T18:20:37.832928Z",
      "apogee_km": 476.068531275032,
      "perigee_km": 474.5254120819691,
      "latitude_deg": 2.632154151181138e-05,
      "longitude_deg": 116.98829169646176,
      "height_km": 476.17879490852783,
      "semi_major_axis_km": 6853.433971678501,
      "eccentricity": 0.00011258,
      "inclination_deg": 53.1593,
      "raan_deg": 218.326,
      "arg_perigee_deg": 88.7851,
      "mean_anomaly_deg": 271.3279,
      "mean_motion_rev_day": 15.3017257
    },
    {
      "epoch": "2026-03-30T01:41:44.699136Z",
      "apogee_km": 476.2414533148767,
      "perigee_km": 474.40212204543786,
      "latitude_deg": -6.855197879614616e-06,
      "longitude_deg": -0.6459188041794881,
      "height_km": 476.2863004482305,
      "semi_major_axis_km": 6853.458787680157,
      "eccentricity": 0.00013419,
      "inclination_deg": 53.1597,
      "raan_deg": 212.258,
      "arg_perigee_deg": 94.1515,
      "mean_anomaly_deg": 265.9639,
      "mean_motion_rev_day": 15.30164259
    },
    {
      "epoch": "2026-03-30T12:40:07.195584Z",
      "apogee_km": 476.092020735452,
      "perigee_km": 474.2771241166429,
      "latitude_deg": 4.6804623866676074e-05,
      "longitude_deg": -167.81415513078665,
      "height_km": 476.10320750159474,
      "semi_major_axis_km": 6853.321572426047,
      "eccentricity": 0.00013241,
      "inclination_deg": 53.1598,
      "raan_deg": 210.1341,
      "arg_perigee_deg": 91.3045,
      "mean_anomaly_deg": 268.8108,
      "mean_motion_rev_day": 15.30210214
    },
    {
      "epoch": "2026-03-30T17:22:16.485888Z",
      "apogee_km": 476.0409544789936,
      "perigee_km": 474.2122296220905,
      "latitude_deg": -4.227457922378788e-05,
      "longitude_deg": 120.5437410030945,
      "height_km": 476.0580526936227,
      "semi_major_axis_km": 6853.263592050542,
      "eccentricity": 0.00013342,
      "inclination_deg": 53.1598,
      "raan_deg": 209.2239,
      "arg_perigee_deg": 92.0982,
      "mean_anomaly_deg": 268.0171,
      "mean_motion_rev_day": 15.30229633
    },
    {
      "epoch": "2026-03-31T13:44:56.657472Z",
      "apogee_km": 477.6171921253399,
      "perigee_km": 472.45264176872934,
      "latitude_deg": -2.0607852972268024e-05,
      "longitude_deg": 170.09498911642916,
      "height_km": 475.66874494075824,
      "semi_major_axis_km": 6853.171916947034,
      "eccentricity": 0.0003768,
      "inclination_deg": 53.1606,
      "raan_deg": 205.2794,
      "arg_perigee_deg": 84.2096,
      "mean_anomaly_deg": 275.9334,
      "mean_motion_rev_day": 15.30260338
    },
    {
      "epoch": "2026-04-01T14:49:47.574336Z",
      "apogee_km": 475.9168610782017,
      "perigee_km": 474.35705592524573,
      "latitude_deg": 3.55027169362382e-06,
      "longitude_deg": 147.9976226005177,
      "height_km": 475.3531184130785,
      "semi_major_axis_km": 6853.273958501723,
      "eccentricity": 0.0001138,
      "inclination_deg": 53.1595,
      "raan_deg": 200.4242,
      "arg_perigee_deg": 331.3091,
      "mean_anomaly_deg": 28.7847,
      "mean_motion_rev_day": 15.30226161
    },
    {
      "epoch": "2026-04-02T06:30:19.317024Z",
      "apogee_km": 476.2746329768215,
      "perigee_km": 473.97591174542595,
      "latitude_deg": 1.2485610488990845e-06,
      "longitude_deg": -90.81000890983654,
      "height_km": 475.7188198141302,
      "semi_major_axis_km": 6853.262272361124,
      "eccentricity": 0.00016771,
      "inclination_deg": 53.1597,
      "raan_deg": 197.3926,
      "arg_perigee_deg": 74.6616,
      "mean_anomaly_deg": 285.457,
      "mean_motion_rev_day": 15.30230075
    },
    {
      "epoch": "2026-04-03T16:59:29.757984Z",
      "apogee_km": 475.81371488564673,
      "perigee_km": 474.76651122277235,
      "latitude_deg": 2.976182936177222e-05,
      "longitude_deg": 103.8059095025203,
      "height_km": 476.0406951665304,
      "semi_major_axis_km": 6853.427113054209,
      "eccentricity": 7.64e-05,
      "inclination_deg": 53.1588,
      "raan_deg": 190.7183,
      "arg_perigee_deg": 73.5732,
      "mean_anomaly_deg": 286.5353,
      "mean_motion_rev_day": 15.30174867
    }
  ]
}